[{"OBJECT_NAME":"STARLINK-3555","OBJECT_ID":"2022-022M","EPOCH":"2026-03-09T23:18:46.488960","MEAN_MOTION":15.0883657,"ECCENTRICITY":0.00015296,"INCLINATION":53.2181,"RA_OF_ASC_NODE":7.8583,"ARG_OF_PERICENTER":95.1453,"MEAN_ANOMALY":264.9714,"EPHEMERIS_TYPE":0,"CLASSIFICATION_TYPE":"U","NORAD_CAT_ID":51863,"ELEMENT_SET_NO":999,"REV_AT_EPOCH":22315,"BSTAR":-0.00036011537,"MEAN_MOTION_DOT":-6.014e-5,"MEAN_MOTION_DDOT":0},{"OBJECT_NAME":"SL-8 DEB","OBJECT_ID":"1986-052E","EPOCH":"2026-03-08T09:24:38.203776","MEAN_MOTION":15.11223117,"ECCENTRICITY":0.00100672,"INCLINATION":74.0059,"RA_OF_ASC_NODE":66.8929,"ARG_OF_PERICENTER":314.4934,"MEAN_ANOMALY":45.5435,"EPHEMERIS_TYPE":0,"CLASSIFICATION_TYPE":"U","NORAD_CAT_ID":16867,"ELEMENT_SET_NO":999,"REV_AT_EPOCH":11371,"BSTAR":0.0018795551,"MEAN_MOTION_DOT":0.0003173,"MEAN_MOTION_DDOT":0}]
